SENTINEL-6              
1 46984U 20086A   24267.52923533 -.00000042  00000+0  80483-4 0  9993
2 46984  66.0450   7.0129 0007817 269.2277  90.7842 12.80928220179428
